[{"OBJECT_NAME":"AMOS-17","OBJECT_ID":"2019-050A","EPOCH":"2026-03-04T17:46:04.306368","MEAN_MOTION":1.00271291,"ECCENTRICITY":0.0001454,"INCLINATION":0.0471,"RA_OF_ASC_NODE":289.7995,"ARG_OF_PERICENTER":51.538,"MEAN_ANOMALY":104.6294,"EPHEMERIS_TYPE":0,"CLASSIFICATION_TYPE":"U","NORAD_CAT_ID":44479,"ELEMENT_SET_NO":999,"REV_AT_EPOCH":2413,"BSTAR":0,"MEAN_MOTION_DOT":9.8e-7,"MEAN_MOTION_DDOT":0}]
