AMOS-17                 
1 44479U 19050A   26063.74032762  .00000098  00000+0  00000+0 0  9996
2 44479   0.0471 289.7995 0001454  51.5380 104.6294  1.00271291 24136
